HTV-X1                  
1 66174U 25241A   26087.17045300  .00002722  00000+0  97292-4 0  9996
2 66174  51.6384 344.0157 0007319 242.7772 117.2464 15.32427502 23773
SZ-21 MODULE            
1 66515U 25246C   26087.27448310  .00043062  00000+0  34891-3 0  9996
2 66515  41.4743  88.8326 0001568 210.3682 149.7069 15.69967006 20990
SHENZHOU-22             
1 66645U 25272A   26087.20348046  .00017871  00000+0  20559-3 0  9992
2 66645  41.4668  95.4304 0004098  43.6624 316.4539 15.61574783280287
SOYUZ-MS 28             
1 66664U 25275A   26087.16470415  .00012619  00000+0  24003-3 0  9990
2 66664  51.6345 341.0267 0006226 240.9881 119.0483 15.48601072557710
DUPLEX                  
1 66906U 98067XS  26087.26576530  .00034002  00000+0  45879-3 0  9998
2 66906  51.6303 336.4539 0002900 197.4506 162.6387 15.57460448 18021
ISS OBJECT XT           
1 66907U 98067XT  26087.07657550  .00217682  00000+0  13412-2 0  9994
2 66907  51.6249 331.4049 0005907 198.8815 161.1966 15.75968383 18073
ISS OBJECT XU           
1 66908U 98067XU  26087.07290118  .00225038  00000+0  13700-2 0  9992
2 66908  51.6247 331.3755 0006132 198.7840 161.2934 15.76216894 18073
SILVERSAT               
1 66909U 98067XV  26087.09242312  .00323857  00000+0  15458-2 0  9998
2 66909  51.6219 329.9939 0006927 204.2844 155.7832 15.81335789 18097
ISS OBJECT XW           
1 66910U 98067XW  26087.08301747  .00195443  00000+0  12836-2 0  9992
2 66910  51.6240 331.4401 0006304 196.5269 163.5525 15.74566527 18070
ISS OBJECT XX           
1 66911U 98067XX  26087.03713223  .00487256  00000+0  16862-2 0  9993
2 66911  51.6193 328.8401 0008692 208.4454 151.6078 15.87650980 18093
ISS OBJECT XY           
1 66912U 98067XY  26087.09351581  .00110653  00000+0  99368-3 0  9992
2 66912  51.6270 333.7912 0004310 195.7948 164.2915 15.67410233 18038
KNACKSAT-2              
1 67683U 98067XZ  26087.26490943  .00044943  00000+0  70041-3 0  9998
2 67683  51.6323 339.4481 0009955 253.0442 106.9457 15.53355433  7671
